CCSDS_OMM_VERS = 2.0
CREATION_DATE  = 
ORIGINATOR     = 

OBJECT_NAME    = ISS (ZARYA)
OBJECT_ID      = 1998-067A
CENTER_NAME    = EARTH
REF_FRAME      = TEME
TIME_SYSTEM    = UTC
MEAN_ELEMENT_THEORY = SGP/SGP4

EPOCH          = 2026-02-12T17:31:29.271360
MEAN_MOTION    = 15.48568005
ECCENTRICITY   = .0011099
INCLINATION    = 51.6312
RA_OF_ASC_NODE = 195.7383
ARG_OF_PERICENTER = 92.2184
MEAN_ANOMALY   = 268.0075

EPHEMERIS_TYPE = 0
CLASSIFICATION_TYPE = U
NORAD_CAT_ID   = 25544
ELEMENT_SET_NO = 999
REV_AT_EPOCH   = 55246
BSTAR          = .15726E-3
MEAN_MOTION_DOT = .8107E-4
MEAN_MOTION_DDOT = 0

CCSDS_OMM_VERS = 2.0
CREATION_DATE  = 
ORIGINATOR     = 

OBJECT_NAME    = ISS (NAUKA)
OBJECT_ID      = 2021-066A
CENTER_NAME    = EARTH
REF_FRAME      = TEME
TIME_SYSTEM    = UTC
MEAN_ELEMENT_THEORY = SGP/SGP4

EPOCH          = 2026-02-12T17:31:29.272224
MEAN_MOTION    = 15.48568005
ECCENTRICITY   = .00110989
INCLINATION    = 51.6312
RA_OF_ASC_NODE = 195.7383
ARG_OF_PERICENTER = 92.2184
MEAN_ANOMALY   = 268.0075

EPHEMERIS_TYPE = 0
CLASSIFICATION_TYPE = U
NORAD_CAT_ID   = 49044
ELEMENT_SET_NO = 999
REV_AT_EPOCH   = 23044
BSTAR          = .15726187E-3
MEAN_MOTION_DOT = .8107E-4
MEAN_MOTION_DDOT = 0

CCSDS_OMM_VERS = 2.0
CREATION_DATE  = 
ORIGINATOR     = 

OBJECT_NAME    = FREGAT DEB
OBJECT_ID      = 2011-037PF
CENTER_NAME    = EARTH
REF_FRAME      = TEME
TIME_SYSTEM    = UTC
MEAN_ELEMENT_THEORY = SGP/SGP4

EPOCH          = 2026-02-12T04:43:50.780928
MEAN_MOTION    = 12.38472102
ECCENTRICITY   = .0935081
INCLINATION    = 51.6523
RA_OF_ASC_NODE = 17.0664
ARG_OF_PERICENTER = 0.8468
MEAN_ANOMALY   = 359.3737

EPHEMERIS_TYPE = 0
CLASSIFICATION_TYPE = U
NORAD_CAT_ID   = 49271
ELEMENT_SET_NO = 999
REV_AT_EPOCH   = 20953
BSTAR          = .72571E-1
MEAN_MOTION_DOT = .4472E-3
MEAN_MOTION_DDOT = 0

CCSDS_OMM_VERS = 2.0
CREATION_DATE  = 
ORIGINATOR     = 

OBJECT_NAME    = CSS (WENTIAN)
OBJECT_ID      = 2022-085A
CENTER_NAME    = EARTH
REF_FRAME      = TEME
TIME_SYSTEM    = UTC
MEAN_ELEMENT_THEORY = SGP/SGP4

EPOCH          = 2026-02-12T22:36:13.508064
MEAN_MOTION    = 15.59551723
ECCENTRICITY   = .00041313
INCLINATION    = 41.4683
RA_OF_ASC_NODE = 358.6180
ARG_OF_PERICENTER = 77.2049
MEAN_ANOMALY   = 282.9251

EPHEMERIS_TYPE = 0
CLASSIFICATION_TYPE = U
NORAD_CAT_ID   = 53239
ELEMENT_SET_NO = 999
REV_AT_EPOCH   = 17384
BSTAR          = .21881696E-3
MEAN_MOTION_DOT = .176E-3
MEAN_MOTION_DDOT = 0

CCSDS_OMM_VERS = 2.0
CREATION_DATE  = 
ORIGINATOR     = 

OBJECT_NAME    = CSS (MENGTIAN)
OBJECT_ID      = 2022-143A
CENTER_NAME    = EARTH
REF_FRAME      = TEME
TIME_SYSTEM    = UTC
MEAN_ELEMENT_THEORY = SGP/SGP4

EPOCH          = 2026-02-12T22:36:13.508064
MEAN_MOTION    = 15.59551723
ECCENTRICITY   = .00041313
INCLINATION    = 41.4683
RA_OF_ASC_NODE = 358.6180
ARG_OF_PERICENTER = 77.2049
MEAN_ANOMALY   = 282.9251

EPHEMERIS_TYPE = 0
CLASSIFICATION_TYPE = U
NORAD_CAT_ID   = 54216
ELEMENT_SET_NO = 999
REV_AT_EPOCH   = 15864
BSTAR          = .21881696E-3
MEAN_MOTION_DOT = .176E-3
MEAN_MOTION_DDOT = 0

CCSDS_OMM_VERS = 2.0
CREATION_DATE  = 
ORIGINATOR     = 

OBJECT_NAME    = PROGRESS-MS 31
OBJECT_ID      = 2025-146A
CENTER_NAME    = EARTH
REF_FRAME      = TEME
TIME_SYSTEM    = UTC
MEAN_ELEMENT_THEORY = SGP/SGP4

EPOCH          = 2026-02-12T17:31:29.272224
MEAN_MOTION    = 15.48568005
ECCENTRICITY   = .00110989
INCLINATION    = 51.6312
RA_OF_ASC_NODE = 195.7383
ARG_OF_PERICENTER = 92.2184
MEAN_ANOMALY   = 268.0075

EPHEMERIS_TYPE = 0
CLASSIFICATION_TYPE = U
NORAD_CAT_ID   = 64751
ELEMENT_SET_NO = 999
REV_AT_EPOCH   = 675
BSTAR          = .15726187E-3
MEAN_MOTION_DOT = .8107E-4
MEAN_MOTION_DDOT = 0

CCSDS_OMM_VERS = 2.0
CREATION_DATE  = 
ORIGINATOR     = 

OBJECT_NAME    = TIANZHOU-9
OBJECT_ID      = 2025-149A
CENTER_NAME    = EARTH
REF_FRAME      = TEME
TIME_SYSTEM    = UTC
MEAN_ELEMENT_THEORY = SGP/SGP4

EPOCH          = 2026-02-12T22:36:13.508064
MEAN_MOTION    = 15.59551723
ECCENTRICITY   = .00041313
INCLINATION    = 41.4683
RA_OF_ASC_NODE = 358.6180
ARG_OF_PERICENTER = 77.2049
MEAN_ANOMALY   = 282.9251

EPHEMERIS_TYPE = 0
CLASSIFICATION_TYPE = U
NORAD_CAT_ID   = 64786
ELEMENT_SET_NO = 999
REV_AT_EPOCH   = 25530
BSTAR          = .21881696E-3
MEAN_MOTION_DOT = .176E-3
MEAN_MOTION_DDOT = 0

CCSDS_OMM_VERS = 2.0
CREATION_DATE  = 
ORIGINATOR     = 

OBJECT_NAME    = DRAGON CRS-33
OBJECT_ID      = 2025-186A
CENTER_NAME    = EARTH
REF_FRAME      = TEME
TIME_SYSTEM    = UTC
MEAN_ELEMENT_THEORY = SGP/SGP4

EPOCH          = 2026-02-12T17:31:29.272224
MEAN_MOTION    = 15.48568005
ECCENTRICITY   = .00110989
INCLINATION    = 51.6312
RA_OF_ASC_NODE = 195.7383
ARG_OF_PERICENTER = 92.2184
MEAN_ANOMALY   = 268.0075

EPHEMERIS_TYPE = 0
CLASSIFICATION_TYPE = U
NORAD_CAT_ID   = 65304
ELEMENT_SET_NO = 999
REV_AT_EPOCH   = 11
BSTAR          = .15726187E-3
MEAN_MOTION_DOT = .8107E-4
MEAN_MOTION_DDOT = 0

CCSDS_OMM_VERS = 2.0
CREATION_DATE  = 
ORIGINATOR     = 

OBJECT_NAME    = PROGRESS-MS 32
OBJECT_ID      = 2025-204A
CENTER_NAME    = EARTH
REF_FRAME      = TEME
TIME_SYSTEM    = UTC
MEAN_ELEMENT_THEORY = SGP/SGP4

EPOCH          = 2026-02-12T17:31:29.272224
MEAN_MOTION    = 15.48568005
ECCENTRICITY   = .00110989
INCLINATION    = 51.6312
RA_OF_ASC_NODE = 195.7383
ARG_OF_PERICENTER = 92.2184
MEAN_ANOMALY   = 268.0075

EPHEMERIS_TYPE = 0
CLASSIFICATION_TYPE = U
NORAD_CAT_ID   = 65586
ELEMENT_SET_NO = 999
REV_AT_EPOCH   = 27
BSTAR          = .15726187E-3
MEAN_MOTION_DOT = .8107E-4
MEAN_MOTION_DDOT = 0

CCSDS_OMM_VERS = 2.0
CREATION_DATE  = 
ORIGINATOR     = 

OBJECT_NAME    = CYGNUS NG-23
OBJECT_ID      = 2025-208A
CENTER_NAME    = EARTH
REF_FRAME      = TEME
TIME_SYSTEM    = UTC
MEAN_ELEMENT_THEORY = SGP/SGP4

EPOCH          = 2026-02-12T17:31:29.272224
MEAN_MOTION    = 15.48568005
ECCENTRICITY   = .00110989
INCLINATION    = 51.6312
RA_OF_ASC_NODE = 195.7383
ARG_OF_PERICENTER = 92.2184
MEAN_ANOMALY   = 268.0075

EPHEMERIS_TYPE = 0
CLASSIFICATION_TYPE = U
NORAD_CAT_ID   = 65616
ELEMENT_SET_NO = 999
REV_AT_EPOCH   = 22
BSTAR          = .15726187E-3
MEAN_MOTION_DOT = .8107E-4
MEAN_MOTION_DDOT = 0

CCSDS_OMM_VERS = 2.0
CREATION_DATE  = 
ORIGINATOR     = 

OBJECT_NAME    = ISS OBJECT XK
OBJECT_ID      = 1998-067XK
CENTER_NAME    = EARTH
REF_FRAME      = TEME
TIME_SYSTEM    = UTC
MEAN_ELEMENT_THEORY = SGP/SGP4

EPOCH          = 2026-02-12T15:05:59.673696
MEAN_MOTION    = 15.86852740
ECCENTRICITY   = .00048617
INCLINATION    = 51.6221
RA_OF_ASC_NODE = 179.2500
ARG_OF_PERICENTER = 311.9497
MEAN_ANOMALY   = 48.1092

EPHEMERIS_TYPE = 0
CLASSIFICATION_TYPE = U
NORAD_CAT_ID   = 65731
ELEMENT_SET_NO = 999
REV_AT_EPOCH   = 2289
BSTAR          = .11833366E-2
MEAN_MOTION_DOT = .32197E-2
MEAN_MOTION_DDOT = 0

