ISS (ZARYA)             
1 25544U 98067A   26043.73019991  .00008107  00000+0  15726-3 0  9993
2 25544  51.6312 195.7383 0011098  92.2184 268.0075 15.48568005552463
ISS (NAUKA)             
1 49044U 21066A   26043.73019991  .00008107  00000+0  15726-3 0  9999
2 49044  51.6312 195.7383 0011098  92.2184 268.0075 15.48568005230445
FREGAT DEB              
1 49271U 11037PF  26043.19711552  .00044720  00000+0  72571-1 0  9990
2 49271  51.6523  17.0664 0935081   0.8468 359.3737 12.38472102209539
CSS (WENTIAN)           
1 53239U 22085A   26043.94182301  .00017600  00000+0  21882-3 0  9999
2 53239  41.4683 358.6180 0004131  77.2049 282.9251 15.59551723173844
CSS (MENGTIAN)          
1 54216U 22143A   26043.94182301  .00017600  00000+0  21882-3 0  9990
2 54216  41.4683 358.6180 0004131  77.2049 282.9251 15.59551723158641
PROGRESS-MS 31          
1 64751U 25146A   26043.73019991  .00008107  00000+0  15726-3 0  9994
2 64751  51.6312 195.7383 0011098  92.2184 268.0075 15.48568005  6752
TIANZHOU-9              
1 64786U 25149A   26043.94182301  .00017600  00000+0  21882-3 0  9992
2 64786  41.4683 358.6180 0004131  77.2049 282.9251 15.59551723255305
DRAGON CRS-33           
1 65304U 25186A   26043.73019991  .00008107  00000+0  15726-3 0  9993
2 65304  51.6312 195.7383 0011098  92.2184 268.0075 15.48568005   111
PROGRESS-MS 32          
1 65586U 25204A   26043.73019991  .00008107  00000+0  15726-3 0  9996
2 65586  51.6312 195.7383 0011098  92.2184 268.0075 15.48568005   270
CYGNUS NG-23            
1 65616U 25208A   26043.73019991  .00008107  00000+0  15726-3 0  9994
2 65616  51.6312 195.7383 0011098  92.2184 268.0075 15.48568005   229
ISS OBJECT XK           
1 65731U 98067XK  26043.62916289  .00321970  00000+0  11833-2 0  9999
2 65731  51.6221 179.2500 0004861 311.9497  48.1092 15.86852740 22899
